[{"OBJECT_NAME":"OCO 2","OBJECT_ID":"2014-035A","EPOCH":"2026-03-29T03:43:38.078976","MEAN_MOTION":14.57116674,"ECCENTRICITY":0.0001517,"INCLINATION":98.1955,"RA_OF_ASC_NODE":30.6958,"ARG_OF_PERICENTER":92.762,"MEAN_ANOMALY":267.3752,"EPHEMERIS_TYPE":0,"CLASSIFICATION_TYPE":"U","NORAD_CAT_ID":40059,"ELEMENT_SET_NO":999,"REV_AT_EPOCH":62439,"BSTAR":0.00016084,"MEAN_MOTION_DOT":6.8e-6,"MEAN_MOTION_DDOT":0},{"OBJECT_NAME":"BRITE-PL2 (HEWELIUSZ)","OBJECT_ID":"2014-049B","EPOCH":"2026-03-29T05:26:48.830784","MEAN_MOTION":14.94279142,"ECCENTRICITY":0.0014331,"INCLINATION":97.8994,"RA_OF_ASC_NODE":199.673,"ARG_OF_PERICENTER":19.9571,"MEAN_ANOMALY":340.2206,"EPHEMERIS_TYPE":0,"CLASSIFICATION_TYPE":"U","NORAD_CAT_ID":40119,"ELEMENT_SET_NO":999,"REV_AT_EPOCH":62950,"BSTAR":0.00026582,"MEAN_MOTION_DOT":2.8e-5,"MEAN_MOTION_DDOT":0},{"OBJECT_NAME":"MMS 1","OBJECT_ID":"2015-011A","EPOCH":"2026-03-29T06:00:02.998944","MEAN_MOTION":0.28310483,"ECCENTRICITY":0.8385576,"INCLINATION":71.0585,"RA_OF_ASC_NODE":349.8665,"ARG_OF_PERICENTER":165.7789,"MEAN_ANOMALY":64.4561,"EPHEMERIS_TYPE":0,"CLASSIFICATION_TYPE":"U","NORAD_CAT_ID":40482,"ELEMENT_SET_NO":999,"REV_AT_EPOCH":130,"BSTAR":0,"MEAN_MOTION_DOT":-1.586e-5,"MEAN_MOTION_DDOT":0},{"OBJECT_NAME":"MMS 2","OBJECT_ID":"2015-011B","EPOCH":"2026-03-29T06:00:02.998944","MEAN_MOTION":0.28310479,"ECCENTRICITY":0.8386318,"INCLINATION":71.0587,"RA_OF_ASC_NODE":349.8686,"ARG_OF_PERICENTER":165.7849,"MEAN_ANOMALY":64.4405,"EPHEMERIS_TYPE":0,"CLASSIFICATION_TYPE":"U","NORAD_CAT_ID":40483,"ELEMENT_SET_NO":999,"REV_AT_EPOCH":130,"BSTAR":0,"MEAN_MOTION_DOT":-1.587e-5,"MEAN_MOTION_DDOT":0},{"OBJECT_NAME":"MMS 3","OBJECT_ID":"2015-011C","EPOCH":"2026-03-29T06:00:02.998944","MEAN_MOTION":0.28310448,"ECCENTRICITY":0.8385577,"INCLINATION":71.0613,"RA_OF_ASC_NODE":349.8733,"ARG_OF_PERICENTER":165.7791,"MEAN_ANOMALY":64.4462,"EPHEMERIS_TYPE":0,"CLASSIFICATION_TYPE":"U","NORAD_CAT_ID":40484,"ELEMENT_SET_NO":999,"REV_AT_EPOCH":130,"BSTAR":0,"MEAN_MOTION_DOT":-1.587e-5,"MEAN_MOTION_DDOT":0},{"OBJECT_NAME":"MMS 4","OBJECT_ID":"2015-011D","EPOCH":"2026-03-29T06:00:02.998944","MEAN_MOTION":0.28310434,"ECCENTRICITY":0.8385104,"INCLINATION":71.0589,"RA_OF_ASC_NODE":349.8685,"ARG_OF_PERICENTER":165.7866,"MEAN_ANOMALY":64.4326,"EPHEMERIS_TYPE":0,"CLASSIFICATION_TYPE":"U","NORAD_CAT_ID":40485,"ELEMENT_SET_NO":999,"REV_AT_EPOCH":130,"BSTAR":0,"MEAN_MOTION_DOT":-1.587e-5,"MEAN_MOTION_DDOT":0},{"OBJECT_NAME":"ASTROSAT","OBJECT_ID":"2015-052A","EPOCH":"2026-03-28T23:09:17.544096","MEAN_MOTION":14.82348827,"ECCENTRICITY":0.0008289,"INCLINATION":5.998,"RA_OF_ASC_NODE":12.7336,"ARG_OF_PERICENTER":325.6613,"MEAN_ANOMALY":34.2979,"EPHEMERIS_TYPE":0,"CLASSIFICATION_TYPE":"U","NORAD_CAT_ID":40930,"ELEMENT_SET_NO":999,"REV_AT_EPOCH":56790,"BSTAR":0.00016955,"MEAN_MOTION_DOT":2.06e-5,"MEAN_MOTION_DDOT":0},{"OBJECT_NAME":"DAMPE","OBJECT_ID":"2015-078A","EPOCH":"2026-03-29T02:05:25.855584","MEAN_MOTION":15.30565998,"ECCENTRICITY":0.001238,"INCLINATION":97.4589,"RA_OF_ASC_NODE":93.1665,"ARG_OF_PERICENTER":8.9424,"MEAN_ANOMALY":351.2035,"EPHEMERIS_TYPE":0,"CLASSIFICATION_TYPE":"U","NORAD_CAT_ID":41173,"ELEMENT_SET_NO":999,"REV_AT_EPOCH":57229,"BSTAR":5.0068e-5,"MEAN_MOTION_DOT":1.404e-5,"MEAN_MOTION_DDOT":0},{"OBJECT_NAME":"PISAT","OBJECT_ID":"2016-059B","EPOCH":"2026-03-29T05:46:30.159840","MEAN_MOTION":14.68823332,"ECCENTRICITY":0.0030579,"INCLINATION":97.8193,"RA_OF_ASC_NODE":92.1363,"ARG_OF_PERICENTER":100.4738,"MEAN_ANOMALY":259.9916,"EPHEMERIS_TYPE":0,"CLASSIFICATION_TYPE":"U","NORAD_CAT_ID":41784,"ELEMENT_SET_NO":999,"REV_AT_EPOCH":50800,"BSTAR":0.0002564,"MEAN_MOTION_DOT":1.46e-5,"MEAN_MOTION_DDOT":0},{"OBJECT_NAME":"HXMT (HUIYAN)","OBJECT_ID":"2017-034A","EPOCH":"2026-03-28T23:54:44.135424","MEAN_MOTION":15.17702674,"ECCENTRICITY":0.0031866,"INCLINATION":43.0136,"RA_OF_ASC_NODE":269.3163,"ARG_OF_PERICENTER":354.2354,"MEAN_ANOMALY":5.8124,"EPHEMERIS_TYPE":0,"CLASSIFICATION_TYPE":"U","NORAD_CAT_ID":42758,"ELEMENT_SET_NO":999,"REV_AT_EPOCH":48547,"BSTAR":0.00029619,"MEAN_MOTION_DOT":5.92e-5,"MEAN_MOTION_DDOT":0},{"OBJECT_NAME":"FLYING LAPTOP","OBJECT_ID":"2017-042G","EPOCH":"2026-03-29T04:23:03.560640","MEAN_MOTION":15.00641606,"ECCENTRICITY":0.0020032,"INCLINATION":97.4331,"RA_OF_ASC_NODE":246.9977,"ARG_OF_PERICENTER":35.1632,"MEAN_ANOMALY":325.091,"EPHEMERIS_TYPE":0,"CLASSIFICATION_TYPE":"U","NORAD_CAT_ID":42831,"ELEMENT_SET_NO":999,"REV_AT_EPOCH":47445,"BSTAR":0.00019964,"MEAN_MOTION_DOT":2.478e-5,"MEAN_MOTION_DDOT":0},{"OBJECT_NAME":"ZHANGHENG 1-01 (CSES-1)","OBJECT_ID":"2018-015C","EPOCH":"2026-03-29T04:44:44.551104","MEAN_MOTION":15.20775196,"ECCENTRICITY":0.001835,"INCLINATION":97.6785,"RA_OF_ASC_NODE":252.2949,"ARG_OF_PERICENTER":169.7691,"MEAN_ANOMALY":190.3921,"EPHEMERIS_TYPE":0,"CLASSIFICATION_TYPE":"U","NORAD_CAT_ID":43194,"ELEMENT_SET_NO":999,"REV_AT_EPOCH":45248,"BSTAR":0.00056624,"MEAN_MOTION_DOT":0.00012468,"MEAN_MOTION_DDOT":0},{"OBJECT_NAME":"SALSAT","OBJECT_ID":"2020-068K","EPOCH":"2026-03-28T23:41:11.718816","MEAN_MOTION":15.28549734,"ECCENTRICITY":0.0008782,"INCLINATION":97.8861,"RA_OF_ASC_NODE":86.2455,"ARG_OF_PERICENTER":214.9729,"MEAN_ANOMALY":145.0934,"EPHEMERIS_TYPE":0,"CLASSIFICATION_TYPE":"U","NORAD_CAT_ID":46495,"ELEMENT_SET_NO":999,"REV_AT_EPOCH":30310,"BSTAR":0.00036891,"MEAN_MOTION_DOT":0.00010179,"MEAN_MOTION_DDOT":0},{"OBJECT_NAME":"IXPE","OBJECT_ID":"2021-121A","EPOCH":"2026-03-29T04:00:01.999584","MEAN_MOTION":15.09455495,"ECCENTRICITY":0.0007511,"INCLINATION":0.2294,"RA_OF_ASC_NODE":202.5287,"ARG_OF_PERICENTER":309.096,"MEAN_ANOMALY":162.6361,"EPHEMERIS_TYPE":0,"CLASSIFICATION_TYPE":"U","NORAD_CAT_ID":49954,"ELEMENT_SET_NO":999,"REV_AT_EPOCH":587,"BSTAR":0.00070491,"MEAN_MOTION_DOT":0.00012561,"MEAN_MOTION_DDOT":0}]
