OCO 2                   
1 40059U 14035A   26088.15530184  .00000680  00000+0  16084-3 0  9997
2 40059  98.1955  30.6958 0001517  92.7620 267.3752 14.57116674624396
BRITE-PL2 (HEWELIUSZ)   
1 40119U 14049B   26088.22695406  .00002800  00000+0  26582-3 0  9996
2 40119  97.8994 199.6730 0014331  19.9571 340.2206 14.94279142629504
MMS 1                   
1 40482U 15011A   26088.25003471 -.00001586  00000+0  00000+0 0  9991
2 40482  71.0585 349.8665 8385576 165.7789  64.4561  0.28310483  1301
MMS 2                   
1 40483U 15011B   26088.25003471 -.00001587  00000+0  00000+0 0  9993
2 40483  71.0587 349.8686 8386318 165.7849  64.4405  0.28310479  1301
MMS 3                   
1 40484U 15011C   26088.25003471 -.00001587  00000+0  00000+0 0  9994
2 40484  71.0613 349.8733 8385577 165.7791  64.4462  0.28310448  1306
MMS 4                   
1 40485U 15011D   26088.25003471 -.00001587  00000+0  00000+0 0  9995
2 40485  71.0589 349.8685 8385104 165.7866  64.4326  0.28310434  1308
ASTROSAT                
1 40930U 15052A   26087.96478639  .00002060  00000+0  16955-3 0  9990
2 40930   5.9980  12.7336 0008289 325.6613  34.2979 14.82348827567902
DAMPE                   
1 41173U 15078A   26088.08710481  .00001404  00000+0  50068-4 0  9991
2 41173  97.4589  93.1665 0012380   8.9424 351.2035 15.30565998572296
PISAT                   
1 41784U 16059B   26088.24062685  .00001460  00000+0  25640-3 0  9992
2 41784  97.8193  92.1363 0030579 100.4738 259.9916 14.68823332508008
HXMT (HUIYAN)           
1 42758U 17034A   26087.99634416  .00005920  00000+0  29619-3 0  9991
2 42758  43.0136 269.3163 0031866 354.2354   5.8124 15.17702674485473
FLYING LAPTOP           
1 42831U 17042G   26088.18268010  .00002478  00000+0  19964-3 0  9994
2 42831  97.4331 246.9977 0020032  35.1632 325.0910 15.00641606474451
ZHANGHENG 1-01 (CSES-1) 
1 43194U 18015C   26088.19773786  .00012468  00000+0  56624-3 0  9994
2 43194  97.6785 252.2949 0018350 169.7691 190.3921 15.20775196452485
SALSAT                  
1 46495U 20068K   26087.98694119  .00010179  00000+0  36891-3 0  9991
2 46495  97.8861  86.2455 0008782 214.9729 145.0934 15.28549734303109
IXPE                    
1 49954U 21121A   26088.16668981  .00012561  00000+0  70491-3 0  9995
2 49954   0.2294 202.5287 0007511 309.0960 162.6361 15.09455495  5879
